STARLINK-31500          
1 59305U 24056K   25144.74713577  .00000252  00000+0  18681-4 0  9992
2 59305  43.0016  62.5668 0001028 286.4180  73.6558 15.27579811 66968
STARLINK-31480          
1 59306U 24056L   25145.05993747 -.00000650  00000+0 -14125-4 0  9990
2 59306  42.9964  60.6096 0001131 271.3969  88.6753 15.27574657 66861
STARLINK-31282          
1 59307U 24056M   25144.75484667  .00002322  00000+0  93919-4 0  9997
2 59307  43.0020  62.6223 0001228 268.7327  91.3384 15.27564631 66969
STARLINK-31485          
1 59308U 24056N   25144.82794479  .00000050  00000+0  11340-4 0  9995
2 59308  43.0018  62.3038 0001102 268.6936  91.3789 15.27571565 66978
STARLINK-31455          
1 59309U 24056P   25142.50119995 -.00056413  00000+0 -13743-2 0  9996
2 59309  43.0031  72.3537 0001867 308.3206  51.7482 15.40232901 66657
STARLINK-31475          
1 59310U 24056Q   25142.50325777 -.00035114  00000+0 -84503-3 0  9993
2 59310  43.0029  72.3695 0002734  47.2422 312.8664 15.40415747 66771
STARLINK-31445          
1 59312U 24056S   25144.10129751  .00000697  00000+0  34854-4 0  9998
2 59312  43.0017  73.2410 0000792 255.3274 104.7489 15.27575741 66784
STARLINK-31495          
1 59313U 24056T   25145.17425003 -.00000127  00000+0  42336-5 0  9990
2 59313  43.0049  56.2820 0001284 279.5453  80.5258 15.40697195 67082
STARLINK-31477          
1 59314U 24056U   25144.82783922 -.00001195  00000+0 -21361-4 0  9990
2 59314  43.0025  58.8524 0001085 274.8684  85.2048 15.40696703 67015
STARLINK-31446          
1 59315U 24056V   25145.17914391 -.00000316  00000+0 -19800-5 0  9996
2 59315  43.0007  59.7820 0001150 264.3503  95.7218 15.27574740 67041
STARLINK-31479          
1 59316U 24056W   25145.05060271 -.00000045  00000+0  78750-5 0  9990
2 59316  43.0004  64.8528 0001145 255.0393 105.0332 15.27576620 66971
STARLINK-31349          
1 59317U 24056X   25144.93301952 -.00000634  00000+0 -13530-4 0  9990
2 59317  42.9993  61.3724 0001444 273.0309  87.0377 15.27570810 67059
STARLINK-31464          
1 59318U 24056Y   25145.05607188  .00000778  00000+0  37789-4 0  9994
2 59318  42.9982  60.5760 0001951 259.7720 100.2912 15.27588376 67026
STARLINK-31402          
1 59320U 24057A   25144.96481180  .00008833  00000+0  32993-3 0  9990
2 59320  43.0035 330.0234 0001344 266.1407  93.9291 15.27600643 67447
STARLINK-31578          
1 59321U 24057B   25145.02727382  .00003249  00000+0  85068-4 0  9994
2 59321  43.0053  19.7392 0001787 276.8889  83.1764 15.40681745 66832
STARLINK-31530          
1 59322U 24057C   25145.04295977 -.00000899  00000+0 -14267-4 0  9990
2 59322  43.0026  19.8591 0001465 268.7784  91.2905 15.40695231 66845
STARLINK-31565          
1 59323U 24057D   25145.25002315  .00014728  00000+0  54400-3 0  9992
2 59323  43.0000  23.6810 0001420 276.7682 222.1076 15.27558027 66819
STARLINK-31570          
1 59324U 24057E   25144.36106906  .00000855  00000+0  27724-4 0  9991
2 59324  43.0024  23.3364 0000790 289.3206  70.7565 15.40694781 65562
STARLINK-31611          
1 59325U 24057F   25144.38571200  .00001117  00000+0  34011-4 0  9996
2 59325  43.0030  23.5257 0001191 292.8853  67.1877 15.40690084 65564
STARLINK-31632          
1 59326U 24057G   25145.03845548 -.00000346  00000+0 -30669-5 0  9990
2 59326  43.0044  28.4671 0001204 271.7325  88.3389 15.27575762 66743
STARLINK-31599          
1 59327U 24057H   25145.05191728 -.00000034  00000+0  64503-5 0  9994
2 59327  43.0032  19.9281 0001264 276.0361  84.0351 15.40696820 66833
STARLINK-31614          
1 59328U 24057J   25144.71432624 -.00000656  00000+0 -84419-5 0  9999
2 59328  43.0032  21.6932 0001875 282.0652  77.9994 15.40705796 65617
STARLINK-31493          
1 59329U 24057K   25144.65846306  .00000665  00000+0  23172-4 0  9995
2 59329  43.0026  22.1341 0001275 270.0274  90.0436 15.40696056 65606
STARLINK-31634          
1 59330U 24057L   25144.95573898 -.00000720  00000+0 -99505-5 0  9991
2 59330  43.0046  20.0546 0002762 288.9503  71.1054 15.40676066 66919
STARLINK-31633          
1 59331U 24057M   25144.94231241 -.00010566  00000+0 -24612-3 0  9998
2 59331  43.0027  19.9563 0000696 294.4957  65.5827 15.40689290 66899
STARLINK-31594          
1 59332U 24057N   25144.38843991 -.00000078  00000+0  66812-5 0  9994
2 59332  43.0043  32.1832 0001161 276.6287  83.4432 15.27573978 65463
STARLINK-31572          
1 59333U 24057P   25145.04488038 -.00000317  00000+0 -19920-5 0  9991
2 59333  43.0014  28.5136 0001076 284.7283  75.3449 15.27572908 66741
STARLINK-31573          
1 59334U 24057Q   25144.70760134  .00001125  00000+0  34180-4 0  9994
2 59334  43.0011  21.6349 0001113 263.9362  96.1368 15.40708400 65617
STARLINK-31588          
1 59335U 24057R   25144.38794790 -.00000111  00000+0  46051-5 0  9990
2 59335  43.0040  23.5390 0001518 275.7301  84.3382 15.40696165 65563
STARLINK-31596          
1 59336U 24057S   25145.04519150 -.00000489  00000+0 -44187-5 0  9997
2 59336  43.0054  19.8707 0002311 253.2702 106.7901 15.40697404 66909
