OBJECT_NAME,OBJECT_ID,EPOCH,MEAN_MOTION,ECCENTRICITY,INCLINATION,RA_OF_ASC_NODE,ARG_OF_PERICENTER,MEAN_ANOMALY,EPHEMERIS_TYPE,CLASSIFICATION_TYPE,NORAD_CAT_ID,ELEMENT_SET_NO,REV_AT_EPOCH,BSTAR,MEAN_MOTION_DOT,MEAN_MOTION_DDOT
STARLINK-31500,2024-056K,2025-05-24T17:55:52.530528,15.27579811,.0001028,43.0016,62.5668,286.4180,73.6558,0,U,59305,999,6696,.18681E-4,.252E-5,0
STARLINK-31480,2024-056L,2025-05-25T01:26:18.597408,15.27574657,.0001131,42.9964,60.6096,271.3969,88.6753,0,U,59306,999,6686,-.14125E-4,-.65E-5,0
STARLINK-31282,2024-056M,2025-05-24T18:06:58.752288,15.27564631,.0001228,43.0020,62.6223,268.7327,91.3384,0,U,59307,999,6696,.93919E-4,.2322E-4,0
STARLINK-31485,2024-056N,2025-05-24T19:52:14.429856,15.27571565,.0001102,43.0018,62.3038,268.6936,91.3789,0,U,59308,999,6697,.1134E-4,.5E-6,0
STARLINK-31455,2024-056P,2025-05-22T12:01:43.675680,15.40232901,.0001867,43.0031,72.3537,308.3206,51.7482,0,U,59309,999,6665,-.13743E-2,-.56413E-3,0
STARLINK-31475,2024-056Q,2025-05-22T12:04:41.471328,15.40415747,.0002734,43.0029,72.3695,47.2422,312.8664,0,U,59310,999,6677,-.84503E-3,-.35114E-3,0
STARLINK-31445,2024-056S,2025-05-24T02:25:52.104864,15.27575741,.0000792,43.0017,73.2410,255.3274,104.7489,0,U,59312,999,6678,.34854E-4,.697E-5,0
STARLINK-31495,2024-056T,2025-05-25T04:10:55.202592,15.40697195,.0001284,43.0049,56.2820,279.5453,80.5258,0,U,59313,999,6708,.42336E-5,-.127E-5,0
STARLINK-31477,2024-056U,2025-05-24T19:52:05.308608,15.40696703,.0001085,43.0025,58.8524,274.8684,85.2048,0,U,59314,999,6701,-.21361E-4,-.1195E-4,0
STARLINK-31446,2024-056V,2025-05-25T04:17:58.033824,15.27574740,.000115,43.0007,59.7820,264.3503,95.7218,0,U,59315,999,6704,-.198E-5,-.316E-5,0
STARLINK-31479,2024-056W,2025-05-25T01:12:52.074144,15.27576620,.0001145,43.0004,64.8528,255.0393,105.0332,0,U,59316,999,6697,.7875E-5,-.45E-6,0
STARLINK-31349,2024-056X,2025-05-24T22:23:32.886528,15.27570810,.0001444,42.9993,61.3724,273.0309,87.0377,0,U,59317,999,6705,-.1353E-4,-.634E-5,0
STARLINK-31464,2024-056Y,2025-05-25T01:20:44.610432,15.27588376,.0001951,42.9982,60.5760,259.7720,100.2912,0,U,59318,999,6702,.37789E-4,.778E-5,0
STARLINK-31402,2024-057A,2025-05-24T23:09:19.739520,15.27600643,.0001344,43.0035,330.0234,266.1407,93.9291,0,U,59320,999,6744,.32993E-3,.8833E-4,0
STARLINK-31578,2024-057B,2025-05-25T00:39:16.458048,15.40681745,.0001787,43.0053,19.7392,276.8889,83.1764,0,U,59321,999,6683,.85068E-4,.3249E-4,0
STARLINK-31530,2024-057C,2025-05-25T01:01:51.724128,15.40695231,.0001465,43.0026,19.8591,268.7784,91.2905,0,U,59322,999,6684,-.14267E-4,-.899E-5,0
STARLINK-31565,2024-057D,2025-05-25T06:00:02.000160,15.27558027,.000142,43.0000,23.6810,276.7682,222.1076,0,U,59323,999,6681,.544E-3,.14728E-3,0
STARLINK-31570,2024-057E,2025-05-24T08:39:56.366784,15.40694781,.000079,43.0024,23.3364,289.3206,70.7565,0,U,59324,999,6556,.27724E-4,.855E-5,0
STARLINK-31611,2024-057F,2025-05-24T09:15:25.516800,15.40690084,.0001191,43.0030,23.5257,292.8853,67.1877,0,U,59325,999,6556,.34011E-4,.1117E-4,0
STARLINK-31632,2024-057G,2025-05-25T00:55:22.553472,15.27575762,.0001204,43.0044,28.4671,271.7325,88.3389,0,U,59326,999,6674,-.30669E-5,-.346E-5,0
STARLINK-31599,2024-057H,2025-05-25T01:14:45.652992,15.40696820,.0001264,43.0032,19.9281,276.0361,84.0351,0,U,59327,999,6683,.64503E-5,-.34E-6,0
STARLINK-31614,2024-057J,2025-05-24T17:08:37.787136,15.40705796,.0001875,43.0032,21.6932,282.0652,77.9994,0,U,59328,999,6561,-.84419E-5,-.656E-5,0
STARLINK-31493,2024-057K,2025-05-24T15:48:11.208384,15.40696056,.0001275,43.0026,22.1341,270.0274,90.0436,0,U,59329,999,6560,.23172E-4,.665E-5,0
STARLINK-31634,2024-057L,2025-05-24T22:56:15.847872,15.40676066,.0002762,43.0046,20.0546,288.9503,71.1054,0,U,59330,999,6691,-.99505E-5,-.72E-5,0
STARLINK-31633,2024-057M,2025-05-24T22:36:55.792224,15.40689290,.0000696,43.0027,19.9563,294.4957,65.5827,0,U,59331,999,6689,-.24612E-3,-.10566E-3,0
STARLINK-31594,2024-057N,2025-05-24T09:19:21.208224,15.27573978,.0001161,43.0043,32.1832,276.6287,83.4432,0,U,59332,999,6546,.66812E-5,-.78E-6,0
STARLINK-31572,2024-057P,2025-05-25T01:04:37.664832,15.27572908,.0001076,43.0014,28.5136,284.7283,75.3449,0,U,59333,999,6674,-.1992E-5,-.317E-5,0
STARLINK-31573,2024-057Q,2025-05-24T16:58:56.755776,15.40708400,.0001113,43.0011,21.6349,263.9362,96.1368,0,U,59334,999,6561,.3418E-4,.1125E-4,0
STARLINK-31588,2024-057R,2025-05-24T09:18:38.698560,15.40696165,.0001518,43.0040,23.5390,275.7301,84.3382,0,U,59335,999,6556,.46051E-5,-.111E-5,0
STARLINK-31596,2024-057S,2025-05-25T01:05:04.545600,15.40697404,.0002311,43.0054,19.8707,253.2702,106.7901,0,U,59336,999,6690,-.44187E-5,-.489E-5,0
